[{"OBJECT_NAME":"STARLINK-4625","OBJECT_ID":"2022-105AM","EPOCH":"2026-03-09T15:58:26.969952","MEAN_MOTION":15.01261736,"ECCENTRICITY":0.00046582,"INCLINATION":97.6012,"RA_OF_ASC_NODE":310.181,"ARG_OF_PERICENTER":56.8765,"MEAN_ANOMALY":303.2906,"EPHEMERIS_TYPE":0,"CLASSIFICATION_TYPE":"U","NORAD_CAT_ID":53683,"ELEMENT_SET_NO":999,"REV_AT_EPOCH":19323,"BSTAR":-3.288093e-6,"MEAN_MOTION_DOT":-1.01e-6,"MEAN_MOTION_DDOT":0},{"OBJECT_NAME":"CZ-4C DEB","OBJECT_ID":"2018-031C","EPOCH":"2026-03-09T22:35:49.335936","MEAN_MOTION":15.00077094,"ECCENTRICITY":0.00045193,"INCLINATION":97.7854,"RA_OF_ASC_NODE":153.1131,"ARG_OF_PERICENTER":226.9779,"MEAN_ANOMALY":133.1066,"EPHEMERIS_TYPE":0,"CLASSIFICATION_TYPE":"U","NORAD_CAT_ID":43261,"ELEMENT_SET_NO":999,"REV_AT_EPOCH":42952,"BSTAR":0.00069836513,"MEAN_MOTION_DOT":8.649e-5,"MEAN_MOTION_DDOT":0}]
